$$SOE
2461302.500000000, A.D. 2026-Sep-19 00:00:00.0000, 1.731973052491677E+08, 1.320034261948041E+08, 2.424017757684916E+07,
2461309.500000000, A.D. 2026-Sep-26 00:00:00.0000, 1.650401099600350E+08, 1.418873805471808E+08, 2.482318878029990E+07,
2461316.500000000, A.D. 2026-Oct-03 00:00:00.0000, 1.561208124717958E+08, 1.511161081158001E+08, 2.529157079285183E+07,
2461323.500000000, A.D. 2026-Oct-10 00:00:00.0000, 1.464775240497397E+08, 1.596439667067914E+08, 2.564265716789500E+07,
2461330.500000000, A.D. 2026-Oct-17 00:00:00.0000, 1.361496333004863E+08, 1.674255409925364E+08, 2.587388009922425E+07,
2461337.500000000, A.D. 2026-Oct-24 00:00:00.0000, 1.251781177837417E+08, 1.744154242260073E+08, 2.598276517996861E+07,
2461344.500000000, A.D. 2026-Oct-31 00:00:00.0000, 1.136059017759477E+08, 1.805680284017942E+08, 2.596693189198424E+07,
2461351.500000000, A.D. 2026-Nov-07 00:00:00.0000, 1.014782661624032E+08, 1.858374254095370E+08, 2.582410040972268E+07,
2461358.500000000, A.D. 2026-Nov-14 00:00:00.0000, 8.884331760813023E+07, 1.901772245092731E+08, 2.555210567191589E+07,
2461365.500000000, A.D. 2026-Nov-21 00:00:00.0000, 7.575252343365596E+07, 1.935404935858416E+08, 2.514892013992847E+07,
2461372.500000000, A.D. 2026-Nov-28 00:00:00.0000, 6.226132047899596E+07, 1.958797309178059E+08, 2.461268663952252E+07,
2461379.500000000, A.D. 2026-Dec-05 00:00:00.0000, 4.842981180894548E+07, 1.971469006739666E+08, 2.394176299160339E+07,
2461386.500000000, A.D. 2026-Dec-12 00:00:00.0000, 3.432356250455881E+07, 1.972935543516744E+08, 2.313478144645885E+07,
2461393.500000000, A.D. 2026-Dec-19 00:00:00.0000, 2.001450408957810E+07, 1.962710637949733E+08, 2.219072660472086E+07,
2461400.500000000, A.D. 2026-Dec-26 00:00:00.0000, 5.581958127871808E+06, 1.940309986654819E+08, 2.110903596071149E+07,
2461407.500000000, A.D. 2027-Jan-02 00:00:00.0000, -8.886212936518814E+06, 1.905256921906328E+08, 1.988972797800924E+07,
2461414.500000000, A.D. 2027-Jan-09 00:00:00.0000, -2.329232571442975E+07, 1.857090524097616E+08, 1.853356370861112E+07,
2461421.500000000, A.D. 2027-Jan-16 00:00:00.0000, -3.752747486228018E+07, 1.795376924854892E+08, 1.704224933751077E+07,
2461428.500000000, A.D. 2027-Jan-23 00:00:00.0000, -5.147003601683427E+07, 1.719724727159920E+08, 1.541868830085649E+07,
2461435.500000000, A.D. 2027-Jan-30 00:00:00.0000, -6.498412401702165E+07, 1.629805676954606E+08, 1.366729229937443E+07,
2461442.500000000, A.D. 2027-Feb-06 00:00:00.0000, -7.791809870337202E+07, 1.525381928109123E+08, 1.179436020429816E+07,
2461449.500000000, A.D. 2027-Feb-13 00:00:00.0000, -9.010327255593957E+07, 1.406341404166633E+08, 9.808531987475447E+06,
2461456.500000000, A.D. 2027-Feb-20 00:00:00.0000, -1.013530627682040E+08, 1.272742753532070E+08, 7.721319883386806E+06,
2461463.500000000, A.D. 2027-Feb-27 00:00:00.0000, -1.114629420409131E+08, 1.124871090901378E+08, 5.547708700820133E+06,
2461470.500000000, A.D. 2027-Mar-06 00:00:00.0000, -1.202116836237017E+08, 9.633049583400275E+07, 3.306800514084697E+06,
2461477.500000000, A.D. 2027-Mar-13 00:00:00.0000, -1.273645563363507E+08, 7.889932839489968E+07, 1.022452606671497E+06,
2461484.500000000, A.D. 2027-Mar-20 00:00:00.0000, -1.326792528259534E+08, 6.033382144083767E+07, -1.276181021915797E+06,
2461491.500000000, A.D. 2027-Mar-27 00:00:00.0000, -1.359153567456131E+08, 4.082753479342823E+07, -3.554342356995095E+06,
2461498.500000000, A.D. 2027-Apr-03 00:00:00.0000, -1.368479530944898E+08, 2.063372334371155E+07, -5.771782924422271E+06,
2461505.500000000, A.D. 2027-Apr-10 00:00:00.0000, -1.352854131465952E+08, 6.800934455241496E+04, -7.883514693945821E+06,
2461512.500000000, A.D. 2027-Apr-17 00:00:00.0000, -1.310903396892591E+08, -2.049499762525360E+07, -9.841393487579644E+06,
2461519.500000000, A.D. 2027-Apr-24 00:00:00.0000, -1.242012148527014E+08, -4.063328378815076E+07, -1.159662185407311E+07,
2461526.500000000, A.D. 2027-May-01 00:00:00.0000, -1.146508465559546E+08, -5.989818700727972E+07, -1.310304750526076E+07,
2461533.500000000, A.D. 2027-May-08 00:00:00.0000, -1.025769854962702E+08, -7.784310041770111E+07, -1.432085613246101E+07,
2461540.500000000, A.D. 2027-May-15 00:00:00.0000, -8.822124454450630E+07, -9.405624475760686E+07, -1.522001731065203E+07,
2461547.500000000, A.D. 2027-May-22 00:00:00.0000, -7.191492110309644E+07, -1.081916563052348E+08, -1.578277510348985E+07,
2461554.500000000, A.D. 2027-May-29 00:00:00.0000, -5.405375912761185E+07, -1.199923811042463E+08, -1.600466032554972E+07,
2461561.500000000, A.D. 2027-Jun-05 00:00:00.0000, -3.506662733699923E+07, -1.293018526889082E+08, -1.589388609887116E+07,
2461568.500000000, A.D. 2027-Jun-12 00:00:00.0000, -1.538421634663280E+07, -1.360627161325776E+08, -1.546940398785252E+07,
2461575.500000000, A.D. 2027-Jun-19 00:00:00.0000, 4.587123900721105E+06, -1.403054402821922E+08, -1.475816666009609E+07,
2461582.500000000, A.D. 2027-Jun-26 00:00:00.0000, 2.448357799604243E+07, -1.421307709165674E+08, -1.379219060175380E+07,
2461589.500000000, A.D. 2027-Jul-03 00:00:00.0000, 4.399368312699012E+07, -1.416901795043886E+08, -1.260588625110708E+07,
2461596.500000000, A.D. 2027-Jul-10 00:00:00.0000, 6.286106926217570E+07, -1.391674715758614E+08, -1.123392249289114E+07,
2461603.500000000, A.D. 2027-Jul-17 00:00:00.0000, 8.088216786171512E+07, -1.347633691364670E+08, -9.709704553302012E+06,
2461610.500000000, A.D. 2027-Jul-24 00:00:00.0000, 9.790093147401805E+07, -1.286837058172072E+08, -8.064415916324481E+06,
2461617.500000000, A.D. 2027-Jul-31 00:00:00.0000, 1.138022020862655E+08, -1.211310910943113E+08, -6.326512461120784E+06,
2461624.500000000, A.D. 2027-Aug-07 00:00:00.0000, 1.285048513990282E+08, -1.122995022241209E+08, -4.521543287182748E+06,
2461631.500000000, A.D. 2027-Aug-14 00:00:00.0000, 1.419553555325235E+08, -1.023711426498199E+08, -2.672186313008547E+06,
2461638.500000000, A.D. 2027-Aug-21 00:00:00.0000, 1.541221294091661E+08, -9.151494283759435E+07, -7.984127971792296E+05,
2461645.500000000, A.D. 2027-Aug-28 00:00:00.0000, 1.649907310204079E+08, -7.988617780776729E+07, 1.082278438153420E+06,
2461652.500000000, A.D. 2027-Sep-04 00:00:00.0000, 1.745599187038859E+08, -6.762679722762260E+07, 2.954596488571648E+06,
2461659.500000000, A.D. 2027-Sep-11 00:00:00.0000, 1.828384805296870E+08, -5.486618180787774E+07, 4.805190042915344E+06,
2461666.500000000, A.D. 2027-Sep-18 00:00:00.0000, 1.898427274264218E+08, -4.172213037275860E+07, 6.622392242105855E+06,
2461673.500000000, A.D. 2027-Sep-25 00:00:00.0000, 1.955945367626280E+08, -2.830194674897232E+07, 8.395987702099066E+06,
2461680.500000000, A.D. 2027-Oct-02 00:00:00.0000, 2.001198424081712E+08, -1.470354208524807E+07, 1.011700494364957E+07,
2461687.500000000, A.D. 2027-Oct-09 00:00:00.0000, 2.034474822640721E+08, -1.016501276290590E+06, 1.177753423673391E+07,
2461694.500000000, A.D. 2027-Oct-16 00:00:00.0000, 2.056083297931118E+08, 1.267691508543225E+07, 1.337056930669617E+07,
2461701.500000000, A.D. 2027-Oct-23 00:00:00.0000, 2.066346503375061E+08, 2.630084689861751E+07, 1.488987067037433E+07,
2461708.500000000, A.D. 2027-Oct-30 00:00:00.0000, 2.065596351659014E+08, 3.978499373511389E+07, 1.632984819126832E+07,
2461715.500000000, A.D. 2027-Nov-06 00:00:00.0000, 2.054170747743326E+08, 5.306385676346669E+07, 1.768546067471749E+07,
2461722.500000000, A.D. 2027-Nov-13 00:00:00.0000, 2.032411405253961E+08, 6.607605671223971E+07, 1.895213032378825E+07,
2461729.500000000, A.D. 2027-Nov-20 00:00:00.0000, 2.000662552264269E+08, 7.876371938491435E+07, 2.012566962694829E+07,
2461736.500000000, A.D. 2027-Nov-27 00:00:00.0000, 1.959270372792369E+08, 9.107192481789733E+07, 2.120221903478343E+07,
2461743.500000000, A.D. 2027-Dec-04 00:00:00.0000, 1.908583037239877E+08, 1.029482141567944E+08, 2.217819421347667E+07,
2461750.500000000, A.D. 2027-Dec-11 00:00:00.0000, 1.848951224391901E+08, 1.143421468376057E+08, 2.305024162058793E+07,
2461757.500000000, A.D. 2027-Dec-18 00:00:00.0000, 1.780729073772179E+08, 1.252049019010888E+08, 2.381520135273754E+07,
2461764.500000000, A.D. 2027-Dec-25 00:00:00.0000, 1.704275528823021E+08, 1.354889183578362E+08, 2.447007646765576E+07,
2461771.500000000, A.D. 2028-Jan-01 00:00:00.0000, 1.619956049469631E+08, 1.451475703772875E+08, 2.501200819681522E+07,
$$EOE